IRIDIUM 150             
1 43257U 18030J   24069.11207611 -.00000024  00000+0 -15781-4 0  9996
2 43257  86.3917 277.3637 0002269  94.0689 266.0766 14.34217362311200
IRIDIUM 143             
1 43258U 18030K   24068.53490085  .00000161  00000+0  50444-4 0  9996
2 43258  86.3922 277.6654 0002527  88.1511 271.9974 14.34217806311067
IRIDIUM 161             
1 43478U 18047C   24069.48670175  .00000295  00000+0  81638-4 0  9990
2 43478  86.4433  75.2282 0002259  90.8258 269.3202 14.43297537305469
IRIDIUM 152             
1 43479U 18047D   24069.48437824  .00000073  00000+0  19163-4 0  9991
2 43479  86.3908  75.0887 0002356  88.3948 271.7518 14.34218058303579
IRIDIUM 147             
1 43480U 18047E   24069.49072001  .00000239  00000+0  78422-4 0  9993
2 43480  86.3908  75.0765 0002059  92.2168 267.9264 14.34218800303563
IRIDIUM 110             
1 43481U 18047F   24069.49706257  .00000415  00000+0  14114-3 0  9994
2 43481  86.3910  75.1443 0002002  99.8974 260.2448 14.34217762303552
IRIDIUM 162             
1 43482U 18047G   24069.48059564  .00000282  00000+0  77743-4 0  9996
2 43482  86.4432  75.1321 0002174  89.9774 270.1676 14.43276217305450
IRIDIUM 160             
1 43569U 18061A   24069.44289642  .00000443  00000+0  15123-3 0  9998
2 43569  86.3965  43.5172 0002075  79.1306 281.0123 14.34216844294445
